ION SCV-004             
1 50993U 22002K   26068.68892644  .00006538  00000+0  23198-3 0  9998
2 50993  97.2961 128.2294 0007216   1.6783 358.4480 15.29369331230088
STARLINK-31954          
1 60102U 24117M   26068.29720767 -.00004229  00000+0 -13092-3 0  9992
2 60102  53.1621  39.1420 0000831  93.5893 266.5203 15.30157979 96823
